*******************************************************************************
JPL/HORIZONS                  3 Juno (A804 RA)             2020-Jun-18 11:56:53
Rec #:       3 (+COV) Soln.date: 2020-May-20_00:55:48   # obs: 7188 (1804-2020)
 
IAU76/J2000 helio. ecliptic osc. elements (au, days, deg., period=Julian yrs):
 
  EPOCH=  2449742.5 ! 1995-Jan-25.00 (TDB)         Residual RMS= .33254
   EC= .2567515519358874   QR= 1.986406952938616   TP= 2450480.8304357994
   OM= 170.3539446471125   W=  247.4514432397242   IN= 12.96023230884082
   A= 2.672601548126298    MA= 193.4465926497093   ADIST= 3.358796143313981
   PER= 4.36928            N= .225581115           ANGMOM= .027179425
   DAN= 2.76905            DDN= 2.27266            L= 57.2770277
   B= -11.9542167          MOID= 1.03704           TP= 1997-Feb-01.3304357994
 
Asteroid physical parameters (km, seconds, rotational period in hours):
   GM= n.a.                RAD= 123.298            ROTPER= 7.21
   H= 5.33                 G= .320                 B-V= .824
                           ALBEDO= .214            STYP= Sk
 
ASTEROID comments: 
1: soln ref.= JPL#112, OCC=0
2: source=ORB
*******************************************************************************
 
 
*******************************************************************************
Ephemeris / WWW_USER Thu Jun 18 11:56:53 2020 Pasadena, USA      / Horizons
*******************************************************************************
Target body name: 3 Juno (A804 RA)                {source: JPL#112}
Center body name: Solar System Barycenter (0)     {source: DE431}
Center-site name: BODY CENTER
*******************************************************************************
Start time      : A.D. 2000-Jun-05 00:00:00.0000 TDB
Stop  time      : A.D. 2040-May-26 00:00:00.0000 TDB
Step-size       : 14400 minutes
*******************************************************************************
Center geodetic : 0.00000000,0.00000000,0.0000000 {E-lon(deg),Lat(deg),Alt(km)}
Center cylindric: 0.00000000,0.00000000,0.0000000 {E-lon(deg),Dxy(km),Dz(km)}
Center radii    : (undefined)                                                  
Small perturbers: Yes                             {source: SB431-N16}
Output units    : AU-D
Output type     : GEOMETRIC cartesian states
Output format   : 3 (position, velocity, LT, range, range-rate)
Reference frame : Ecliptic of J2000.0
*******************************************************************************
Initial IAU76/J2000 heliocentric ecliptic osculating elements (au, days, deg.):
  EPOCH=  2449742.5 ! 1995-Jan-25.00 (TDB)         Residual RMS= .33254        
   EC= .2567515519358874   QR= 1.986406952938616   TP= 2450480.8304357994      
   OM= 170.3539446471125   W=  247.4514432397242   IN= 12.96023230884082       
  Equivalent ICRF heliocentric equatorial cartesian coordinates (au, au/d):
   X=-1.344599514782340E+00  Y=-3.020946404952467E+00  Z=-5.169713347646722E-01
  VX= 7.591565951736826E-03 VY=-2.794970951331517E-03 VZ=-8.164050580868809E-04
Asteroid physical parameters (km, seconds, rotational period in hours):        
   GM= n.a.                RAD= 123.298            ROTPER= 7.21                
   H= 5.33                 G= .320                 B-V= .824                   
                           ALBEDO= .214            STYP= Sk                    
*******************************************************************************
JDTDB
   X     Y     Z
   VX    VY    VZ
   LT    RG    RR
*******************************************************************************
$$SOE
2459890.500000000 = A.D. 2022-Nov-07 00:00:00.0000 TDB 
 X = 2.154954286877709E+00 Y = 1.120985133993944E-01 Z =-1.131379450090706E-01
 VX=-3.036161549417416E-03 VY= 1.206855207044431E-02 VZ=-2.619267610365855E-03
 LT= 1.247992391521009E-02 RG= 2.160831842101519E+00 RR=-2.264676015217114E-03
2459900.500000000 = A.D. 2022-Nov-17 00:00:00.0000 TDB 
 X = 2.121443373590319E+00 Y = 2.325619717344582E-01 Z =-1.391519504319059E-01
 VX=-3.667630098532416E-03 VY= 1.201796722191154E-02 VZ=-2.582065988013673E-03
 LT= 1.235201009394474E-02 RG= 2.138684250504571E+00 RR=-2.163221567875988E-03
2459910.500000000 = A.D. 2022-Nov-27 00:00:00.0000 TDB 
 X = 2.081573900157717E+00 Y = 3.523310964024553E-01 Z =-1.647493418348060E-01
 VX=-4.307422461061395E-03 VY= 1.192935975351709E-02 VZ=-2.535889278260046E-03
 LT= 1.223023719446698E-02 RG= 2.117599926554818E+00 RR=-2.052015409762885E-03
2459920.500000000 = A.D. 2022-Dec-07 00:00:00.0000 TDB 
 X = 2.035276740795543E+00 Y = 4.710162133195651E-01 Z =-1.898387986770830E-01
 VX=-4.952658474906097E-03 VY= 1.180087401614382E-02 VZ=-2.480433603751782E-03
 LT= 1.211516874281046E-02 RG= 2.097676441760356E+00 RR=-1.931062860772338E-03
2459930.500000000 = A.D. 2022-Dec-17 00:00:00.0000 TDB 
 X = 1.982513287120744E+00 Y = 5.882102096698488E-01 Z =-2.143262853837989E-01
 VX=-5.600116695001712E-03 VY= 1.163088799946062E-02 VZ=-2.415462047134614E-03
 LT= 1.200736503452054E-02 RG= 2.079010808287576E+00 RR=-1.800472448478323E-03
2459940.500000000 = A.D. 2022-Dec-27 00:00:00.0000 TDB 
 X = 1.923278785314295E+00 Y = 7.034911766088904E-01 Z =-2.381157873568741E-01
 VX=-6.246251521004932E-03 VY= 1.141807489231108E-02 VZ=-2.340817919790746E-03
 LT= 1.190737684319133E-02 RG= 2.061698389628118E+00 RR=-1.660467123939028E-03
2459950.500000000 = A.D. 2023-Jan-06 00:00:00.0000 TDB 
 X = 1.857605439990396E+00 Y = 8.164256725308165E-01 Z =-2.611101782997181E-01
 VX=-6.887222935615901E-03 VY= 1.116146522253005E-02 VZ=-2.256437654628895E-03
 LT= 1.181573852864075E-02 RG= 2.045831707316371E+00 RR=-1.511393723888940E-03
2459960.500000000 = A.D. 2023-Jan-16 00:00:00.0000 TDB 
 X = 1.785565153252938E+00 Y = 9.265725996560803E-01 Z =-2.832122118747763E-01
 VX=-7.518939835732497E-03 VY= 1.086050690968876E-02 VZ=-2.162362663644401E-03
 LT= 1.173296066562978E-02 RG= 2.031499164631779E+00 RR=-1.353729981399468E-03
2459970.500000000 = A.D. 2023-Jan-26 00:00:00.0000 TDB 
 X = 1.707271761376705E+00 Y = 1.033487658241676E+00 Z =-3.043256238585534E-01
 VX=-8.137117136389529E-03 VY= 1.051512018915638E-02 VZ=-2.058749463580043E-03
 LT= 1.165952235936832E-02 RG= 2.018783716069920E+00 RR=-1.188088219449355E-03
2459980.500000000 = A.D. 2023-Feb-05 00:00:00.0000 TDB 
 X = 1.622882633582507E+00 Y = 1.136728310188607E+00 Z =-3.243563238969115E-01
 VX=-8.737346097146265E-03 VY= 1.012574399241041E-02 VZ=-1.945877346391236E-03
 LT= 1.159586345992562E-02 RG= 2.007761519309467E+00 RR=-1.015215076258035E-03
2459990.500000000 = A.D. 2023-Feb-15 00:00:00.0000 TDB 
 X = 1.532599507029620E+00 Y = 1.235859149638789E+00 Z =-3.432136486882664E-01
 VX=-9.315176415138425E-03 VY= 9.693370416915240E-03 VZ=-1.824152883662513E-03
 LT= 1.154237691880179E-02 RG= 1.998500611793566E+00 RR=-8.359867814531195E-04
2460000.500000000 = A.D. 2023-Feb-25 00:00:00.0000 TDB 
 X = 1.436668452084341E+00 Y = 1.330457545448424E+00 Z =-3.608116417833295E-01
 VX=-9.866207587052350E-03 VY= 9.219564140584160E-03 VZ=-1.694110651936325E-03
 LT= 1.149940155461411E-02 RG= 1.991059658147249E+00 RR=-6.513996978706702E-04
2460010.500000000 = A.D. 2023-Mar-07 00:00:00.0000 TDB 
 X = 1.335378891233530E+00 Y = 1.420119391479538E+00 Z =-3.770703196579148E-01
 VX=-1.038618619165116E-02 VY= 8.706464217792238E-03 VZ=-1.556409698850958E-03
 LT= 1.146721550069340E-02 RG= 1.985486815663913E+00 RR=-4.625561972674883E-04
2460020.500000000 = A.D. 2023-Mar-17 00:00:00.0000 TDB 
 X = 1.229061632579781E+00 Y = 1.504464779764472E+00 Z =-3.919168800898622E-01
 VX=-1.087110493418846E-02 VY= 8.156766691511918E-03 VZ=-1.411825530226432E-03
 LT= 1.144603059784511E-02 RG= 1.981818763442008E+00 RR=-2.706460989677016E-04
2460030.500000000 = A.D. 2023-Mar-27 00:00:00.0000 TDB 
 X = 1.118085923912815E+00 Y = 1.583143401577031E+00 Z =-4.052868084179299E-01
 VX=-1.131729865696268E-02 VY= 7.573687581372734E-03 VZ=-1.261237748210817E-03
 LT= 1.143598797877847E-02 RG= 1.980079937852626E+00 RR=-7.692405769629822E-05
2460040.500000000 = A.D. 2023-Apr-06 00:00:00.0000 TDB 
 X = 1.002855582541495E+00 Y = 1.655839482612425E+00 Z =-4.171248400699781E-01
 VX=-1.172153237125706E-02 VY= 6.960906925517579E-03 VZ=-1.105613753043057E-03
 LT= 1.143715505700415E-02 RG= 1.980282011183314E+00 RR= 1.173162742536426E-04
2460050.500000000 = A.D. 2023-Apr-16 00:00:00.0000 TDB 
 X = 8.838043038134853E-01 Y = 1.722276071090575E+00 Z =-4.273857428314426E-01
 VX=-1.208107679703548E-02 VY= 6.322495747287651E-03 VZ=-9.459891036700028E-04
 LT= 1.144952406946657E-02 RG= 1.982423639302662E+00 RR= 3.107699639837930E-04
2460060.500000000 = A.D. 2023-Apr-26 00:00:00.0000 TDB 
 X = 7.613902928164233E-01 Y = 1.782218523223744E+00 Z =-4.360348894399955E-01
 VX=-1.239376760645506E-02 VY= 5.662829210407290E-03 VZ=-7.834453950968729E-04
 LT= 1.147301224089683E-02 RG= 1.986490490117144E+00 RR= 5.021490396550346E-04
2460070.500000000 = A.D. 2023-May-06 00:00:00.0000 TDB 
 X = 6.360903979549977E-01 Y = 1.835477068366940E+00 Z =-4.430486010685460E-01
 VX=-1.265804542405615E-02 VY= 4.986490134284268E-03 VZ=-6.190867407042845E-04
 LT= 1.150746356382270E-02 RG= 1.992455551770287E+00 RR= 6.902099548387381E-04
2460080.500000000 = A.D. 2023-May-16 00:00:00.0000 TDB 
 X = 5.083939478002696E-01 Y = 1.881908380426243E+00 Z =-4.484142532404541E-01
 VX=-1.287297502597662E-02 VY= 4.298167553611198E-03 VZ=-4.540159665594982E-04
 LT= 1.155265210820301E-02 RG= 2.000279705688098E+00 RR= 8.737788879527327E-04
2460090.500000000 = A.D. 2023-May-26 00:00:00.0000 TDB 
 X = 3.787965014676030E-01 Y = 1.921416130820286E+00 Z =-4.521301470169728E-01
 VX=-1.303824350713179E-02 VY= 3.602555287255019E-03 VZ=-2.893116560326587E-04
 LT= 1.160828670310942E-02 RG= 2.009912537187148E+00 RR= 1.051773795019829E-03
